TIANMU-1 07             
1 57399U 23101A   26065.57454230  .00008352  00000+0  29795-3 0  9991
2 57399  97.2728 118.5929 0004609 142.4105 217.7458 15.29118809145964
STARLINK-34076          
1 63915U 25095AB  26068.32993305  .00042303  00000+0  15376-2 0  9996
2 63915  42.9964 178.1680 0000672 245.5679 114.5103 15.27588334 47725
